{
    "links": {
        "self": "http://www.neowsapp.com/rest/v1/neo/3986836?api_key=iIulBulltgU6a56xZRHN4H3l9WmuAYTsLGpBGhQ2"
    },
    "id": "3986836",
    "neo_reference_id": "3986836",
    "name": "(2020 BX2)",
    "designation": "2020 BX2",
    "nasa_jpl_url": "http://ssd.jpl.nasa.gov/sbdb.cgi?sstr=3986836",
    "absolute_magnitude_h": 25.38,
    "estimated_diameter": {
        "kilometers": {
            "estimated_diameter_min": 0.0223128464,
            "estimated_diameter_max": 0.0498930414
        },
        "meters": {
            "estimated_diameter_min": 22.3128464417,
            "estimated_diameter_max": 49.8930414151
        },
        "miles": {
            "estimated_diameter_min": 0.0138645557,
            "estimated_diameter_max": 0.031002089
        },
        "feet": {
            "estimated_diameter_min": 73.2048791197,
            "estimated_diameter_max": 163.6910859964
        }
    },
    "is_potentially_hazardous_asteroid": false,
    "close_approach_data": [
        {
            "close_approach_date": "2020-01-08",
            "close_approach_date_full": "2020-Jan-08 06:05",
            "epoch_date_close_approach": 1578463500000,
            "relative_velocity": {
                "kilometers_per_second": "6.0134183297",
                "kilometers_per_hour": "21648.3059870051",
                "miles_per_hour": "13451.4154617588"
            },
            "miss_distance": {
                "astronomical": "0.0878132344",
                "lunar": "34.1593481816",
                "kilometers": "13136672.824050728",
                "miles": "8162749.9811189264"
            },
            "orbiting_body": "Earth"
        }
    ],
    "orbital_data": {
        "orbit_id": "5",
        "orbit_determination_date": "2020-01-31 06:45:28",
        "first_observation_date": "2020-01-20",
        "last_observation_date": "2020-01-30",
        "data_arc_in_days": 10,
        "observations_used": 34,
        "orbit_uncertainty": "8",
        "minimum_orbit_intersection": ".0869458",
        "jupiter_tisserand_invariant": "3.255",
        "epoch_osculation": "2458870.5",
        "eccentricity": ".5642760816643018",
        "semi_major_axis": "2.450675007069859",
        "inclination": "3.108043548827299",
        "ascending_node_longitude": "130.1003211433585",
        "orbital_period": "1401.28673033179",
        "perihelion_distance": "1.067817716647844",
        "perihelion_argument": "337.2677557888895",
        "aphelion_distance": "3.833532297491875",
        "perihelion_time": "2458856.449928359545",
        "mean_anomaly": "3.609558044816555",
        "mean_motion": ".2569067359360213",
        "equinox": "J2000",
        "orbit_class": {
            "orbit_class_type": "AMO",
            "orbit_class_description": "Near-Earth asteroid orbits similar to that of 1221 Amor",
            "orbit_class_range": "1.017 AU < q (perihelion) < 1.3 AU"
        }
    },
    "is_sentry_object": false
}